[{"OBJECT_NAME":"STARLINK-5359","OBJECT_ID":"2022-177AW","EPOCH":"2026-03-09T04:46:35.333184","MEAN_MOTION":15.02537147,"ECCENTRICITY":0.00013428,"INCLINATION":43.0015,"RA_OF_ASC_NODE":122.7958,"ARG_OF_PERICENTER":281.4954,"MEAN_ANOMALY":78.5738,"EPHEMERIS_TYPE":0,"CLASSIFICATION_TYPE":"U","NORAD_CAT_ID":54864,"ELEMENT_SET_NO":999,"REV_AT_EPOCH":17703,"BSTAR":-5.0209848e-5,"MEAN_MOTION_DOT":-8.82e-6,"MEAN_MOTION_DDOT":0},{"OBJECT_NAME":"CZ-6A DEB","OBJECT_ID":"2024-140AV","EPOCH":"2026-03-09T16:02:49.073856","MEAN_MOTION":14.88911619,"ECCENTRICITY":0.00760382,"INCLINATION":89.0057,"RA_OF_ASC_NODE":281.1228,"ARG_OF_PERICENTER":170.8875,"MEAN_ANOMALY":189.3755,"EPHEMERIS_TYPE":0,"CLASSIFICATION_TYPE":"U","NORAD_CAT_ID":60644,"ELEMENT_SET_NO":999,"REV_AT_EPOCH":8516,"BSTAR":0.002692912,"MEAN_MOTION_DOT":0.00026759,"MEAN_MOTION_DDOT":0}]
